H1 CPF 01  gfz 2022 11 05 01  8091 terrasarx 
H2 0702601  6201 31698    2022 11 05 00 59 42 2022 11 10 00 00 42   120 1 1  0 0 0
H9
10 0 59892   5742.000000  0    -568470.648  -3282548.875  -6036620.580
10 0 59892   5862.000000  0    -969118.611  -3959081.047  -5560744.619
10 0 59892   5982.000000  0   -1364121.566  -4559929.315  -4987657.353
10 0 59892   6102.000000  0   -1745183.699  -5074753.571  -4327287.991
10 0 59892   6222.000000  0   -2104068.777  -5494828.043  -3591110.638
10 0 59892   6342.000000  0   -2432774.861  -5813198.866  -2791953.350
10 0 59892   6462.000000  0   -2723709.251  -6024810.117  -1943780.569
10 0 59892   6582.000000  0   -2969859.958  -6126595.494  -1061451.348
10 0 59892   6702.000000  0   -3164959.382  -6117531.744   -160456.462
10 0 59892   6822.000000  0   -3303635.010  -5998650.511    743359.775
10 0 59892   6942.000000  0   -3381543.329  -5773008.828   1634086.157
10 0 59892   7062.000000  0   -3395483.537  -5445618.330   2496034.149
10 0 59892   7182.000000  0   -3343487.611  -5023334.566   3314022.780
10 0 59892   7302.000000  0   -3224884.718  -4514710.585   4073652.822
10 0 59892   7422.000000  0   -3040338.619  -3929818.082   4761564.928
10 0 59892   7542.000000  0   -2791857.610  -3280040.353   5365675.977
10 0 59892   7662.000000  0   -2482776.335  -2577843.282   5875389.683
10 0 59892   7782.000000  0   -2117710.398  -1836530.538   6281778.094
10 0 59892   7902.000000  0   -1702485.365  -1069987.771   6577733.827
10 0 59892   8022.000000  0   -1244040.261   -292418.194   6758088.743
10 0 59892   8142.000000  0    -750310.152    481921.399   6819696.018
10 0 59892   8262.000000  0    -230089.244   1238980.527   6761482.120
10 0 59892   8382.000000  0     307125.681   1965169.710   6584464.828
10 0 59892   8502.000000  0     851308.442   2647604.393   6291736.290
10 0 59892   8622.000000  0    1392089.763   3274333.355   5888411.971
10 0 59892   8742.000000  0    1918953.784   3834550.171   5381546.979
10 0 59892   8862.000000  0    2421442.427   4318784.121   4780019.089
10 0 59892   8982.000000  0    2889364.616   4719066.261   4094378.298
10 0 59892   9102.000000  0    3313003.589   5029065.795   3336665.698
10 0 59892   9222.000000  0    3683320.721   5244198.108   2520206.383
10 0 59892   9342.000000  0    3992152.130   5361698.855   1659371.312
10 0 59892   9462.000000  0    4232386.803   5380657.895    769319.903
10 0 59892   9582.000000  0    4398127.355   5302020.194   -134273.800
10 0 59892   9702.000000  0    4484826.340   5128544.910  -1035506.867
10 0 59892   9822.000000  0    4489396.636   4864728.616  -1918534.825
10 0 59892   9942.000000  0    4410291.979   4516694.723  -2767857.572
10 0 59892  10062.000000  0    4247555.991   4092051.684  -3568597.267
10 0 59892  10182.000000  0    4002837.719   3599722.980  -4306761.572
10 0 59892  10302.000000  0    3679375.887   3049754.684  -4969485.963
10 0 59892  10422.000000  0    3281952.297   2453105.827  -5545253.142
10 0 59892  10542.000000  0    2816815.061   1821426.395  -6024085.190
10 0 59892  10662.000000  0    2291574.807   1166827.681  -6397705.857
10 0 59892  10782.000000  0    1715075.996    501650.655  -6659671.278
10 0 59892  10902.000000  0    1097247.843   -161763.020  -6805470.184
10 0 59892  11022.000000  0     448934.213   -811295.714  -6832594.957
10 0 59892  11142.000000  0    -218294.173  -1435270.246  -6740578.325
10 0 59892  11262.000000  0    -892340.463  -2022653.467  -6531000.043
10 0 59892  11382.000000  0   -1560795.702  -2563247.101  -6207464.095
10 0 59892  11502.000000  0   -2211162.112  -3047862.848  -5775542.912
10 0 59892  11622.000000  0   -2831081.890  -3468478.046  -5242691.510
10 0 59892  11742.000000  0   -3408570.609  -3818371.794  -4618131.409
10 0 59892  11862.000000  0   -3932250.309  -4092237.419  -3912701.641
10 0 59892  11982.000000  0   -4391576.309  -4286268.368  -3138680.234
10 0 59892  12102.000000  0   -4777054.358  -4398216.296  -2309577.571
10 0 59892  12222.000000  0   -5080442.222  -4427418.638  -1439903.702
10 0 59892  12342.000000  0   -5294930.617  -4374794.684   -544914.051
10 0 59892  12462.000000  0   -5415298.719  -4242809.913    359661.895
10 0 59892  12582.000000  0   -5438039.902  -4035409.045   1257904.351
10 0 59892  12702.000000  0   -5361452.742  -3757917.976   2133993.274
10 0 59892  12822.000000  0   -5185695.005  -3416916.975   2972496.247
10 0 59892  12942.000000  0   -4912799.858  -3020089.724   3758647.921
10 0 59892  13062.000000  0   -4546654.194  -2576051.773   4478616.246
10 0 59892  13182.000000  0   -4092938.573  -2094162.095   5119748.629
10 0 59892  13302.000000  0   -3559032.859  -1584324.481   5670792.485
10 0 59892  13422.000000  0   -2953890.495  -1056783.263   6122090.080
10 0 59892  13542.000000  0   -2287881.782   -521915.777   6465744.511
10 0 59892  13662.000000  0   -1572609.520      9973.478   6695751.521
10 0 59892  13782.000000  0    -820703.098    528850.166   6808096.857
10 0 59892  13902.000000  0     -45594.903   1025137.841   6800821.883
10 0 59892  14022.000000  0     738719.186   1489894.075   6674055.625
10 0 59892  14142.000000  0    1517931.864   1914971.751   6430012.654
10 0 59892  14262.000000  0    2277684.533   2293161.888   6072956.097
10 0 59892  14382.000000  0    3003831.469   2618316.469   5609128.411
10 0 59892  14502.000000  0    3682705.703   2885450.421   5046648.815
10 0 59892  14622.000000  0    4301379.718   3090820.181   4395376.225
10 0 59892  14742.000000  0    4847915.693   3231977.124   3666742.312
10 0 59892  14862.000000  0    5311605.379   3307795.812   2873554.729
10 0 59892  14982.000000  0    5683187.215   3318472.914   2029769.783
10 0 59892  15102.000000  0    5955037.116   3265500.026   1150244.639
10 0 59892  15222.000000  0    6121330.084   3151609.622    250469.370
10 0 59892  15342.000000  0    6178165.722   2980694.197   -653714.672
10 0 59892  15462.000000  0    6123655.036   2757700.613  -1546402.586
10 0 59892  15582.000000  0    5957966.278   2488504.400  -2411912.862
10 0 59892  15702.000000  0    5683330.533   2179767.582  -3235069.475
10 0 59892  15822.000000  0    5304005.775   1838781.138  -4001471.928
10 0 59892  15942.000000  0    4826201.395   1473297.494  -4697748.282
10 0 59892  16062.000000  0    4257964.018   1091357.598  -5311784.501
10 0 59892  16182.000000  0    3609031.571    701117.941  -5832926.952
10 0 59892  16302.000000  0    2890658.042    310680.272  -6252157.862
10 0 59892  16422.000000  0    2115411.852    -72072.340  -6562239.956
10 0 59892  16542.000000  0    1296954.447   -439630.044  -6757829.885
10 0 59892  16662.000000  0     449801.329   -784999.423  -6835562.083
10 0 59892  16782.000000  0    -410932.488  -1101832.560  -6794099.492
10 0 59892  16902.000000  0   -1269795.205  -1384540.012  -6634153.306
10 0 59892  17022.000000  0   -2111269.167  -1628387.174  -6358473.003
10 0 59892  17142.000000  0   -2920045.275  -1829572.365  -5971803.392
10 0 59892  17262.000000  0   -3681295.550  -1985285.491  -5480811.789
10 0 59892  17382.000000  0   -4380944.325  -2093747.664  -4893985.526
10 0 59892  17502.000000  0   -5005931.623  -2154229.514  -4221496.310
10 0 59892  17622.000000  0   -5544462.670  -2167048.048  -3475034.640
10 0 59892  17742.000000  0   -5986239.798  -2133541.943  -2667614.811
10 0 59892  17862.000000  0   -6322669.912  -2056024.813  -1813352.551
10 0 59892  17982.000000  0   -6547042.819  -1937717.547   -927219.517
10 0 59892  18102.000000  0   -6654675.026  -1782660.893    -24778.096
10 0 59892  18222.000000  0   -6643015.009  -1595610.075    878097.865
10 0 59892  18342.000000  0   -6511705.962  -1381913.649   1765510.808
10 0 59892  18462.000000  0   -6262603.884  -1147380.341   2621828.730
10 0 59892  18582.000000  0   -5899750.831   -898137.191   3431969.100
10 0 59892  18702.000000  0   -5429304.460   -640481.892   4181672.150
10 0 59892  18822.000000  0   -4859423.473   -380734.041   4857756.275
10 0 59892  18942.000000  0   -4200116.157   -125089.226   5448349.130
10 0 59892  19062.000000  0   -3463056.126    120521.478   5943094.377
10 0 59892  19182.000000  0   -2661366.324    350562.967   6333329.568
10 0 59892  19302.000000  0   -1809378.145    560015.187   6612231.770
10 0 59892  19422.000000  0    -922370.321    744478.111   6774931.218
10 0 59892  19542.000000  0     -16292.749    900261.485   6818590.164
10 0 59892  19662.000000  0     892519.865   1024456.888   6742448.619
10 0 59892  19782.000000  0    1787641.269   1114991.873   6547836.835
10 0 59892  19902.000000  0    2652849.534   1170664.843   6238153.483
10 0 59892  20022.000000  0    3472421.157   1191159.934   5818810.774
10 0 59892  20142.000000  0    4231419.578   1177041.924   5297144.723
10 0 59892  20262.000000  0    4915970.421   1129731.355   4682292.791
10 0 59892  20382.000000  0    5513522.726   1051460.274   3985041.429
10 0 59892  20502.000000  0    6013089.581    945209.534   3217639.922
10 0 59892  20622.000000  0    6405459.451    814628.494   2393584.943
10 0 59892  20742.000000  0    6683375.021    663938.454   1527382.354
10 0 59892  20862.000000  0    6841676.635    497823.324    634286.666
10 0 59892  20982.000000  0    6877403.150    321308.870   -269974.515
10 0 59892  21102.000000  0    6789849.775    139634.131  -1169486.703
10 0 59892  21222.000000  0    6580579.063    -41881.413  -2048437.677
10 0 59892  21342.000000  0    6253386.210   -217971.975  -2891402.676
10 0 59892  21462.000000  0    5814220.908   -383557.401  -3683619.881
10 0 59892  21582.000000  0    5271067.217   -533869.195  -4411251.012
10 0 59892  21702.000000  0    4633784.878   -664567.116  -5061620.765
10 0 59892  21822.000000  0    3913918.731   -771843.989  -5623431.066
10 0 59892  21942.000000  0    3124480.385   -852517.859  -6086949.043
10 0 59892  22062.000000  0    2279705.870   -904108.747  -6444165.183
10 0 59892  22182.000000  0    1394795.896   -924897.571  -6688919.858
99
